CCSDS_OMM_VERS = 2.0
CREATION_DATE  = 
ORIGINATOR     = 

OBJECT_NAME    = STARLINK-36541
OBJECT_ID      = 2026-012S
CENTER_NAME    = EARTH
REF_FRAME      = TEME
TIME_SYSTEM    = UTC
MEAN_ELEMENT_THEORY = SGP/SGP4

EPOCH          = 2026-02-07T04:00:01.999584
MEAN_MOTION    = 15.53431142
ECCENTRICITY   = .0001209
INCLINATION    = 42.9993
RA_OF_ASC_NODE = 129.1915
ARG_OF_PERICENTER = 271.9703
MEAN_ANOMALY   = 178.3817

EPHEMERIS_TYPE = 0
CLASSIFICATION_TYPE = U
NORAD_CAT_ID   = 67509
ELEMENT_SET_NO = 999
REV_AT_EPOCH   = 410
BSTAR          = -.35612E-1
MEAN_MOTION_DOT = -.2062315E-1
MEAN_MOTION_DDOT = 0

CCSDS_OMM_VERS = 2.0
CREATION_DATE  = 
ORIGINATOR     = 

OBJECT_NAME    = STARLINK-36549
OBJECT_ID      = 2026-012T
CENTER_NAME    = EARTH
REF_FRAME      = TEME
TIME_SYSTEM    = UTC
MEAN_ELEMENT_THEORY = SGP/SGP4

EPOCH          = 2026-02-07T04:00:01.999584
MEAN_MOTION    = 15.69665274
ECCENTRICITY   = .0001352
INCLINATION    = 42.9990
RA_OF_ASC_NODE = 128.3651
ARG_OF_PERICENTER = 276.7809
MEAN_ANOMALY   = 143.6761

EPHEMERIS_TYPE = 0
CLASSIFICATION_TYPE = U
NORAD_CAT_ID   = 67510
ELEMENT_SET_NO = 999
REV_AT_EPOCH   = 410
BSTAR          = -.17709E-1
MEAN_MOTION_DOT = -.1917581E-1
MEAN_MOTION_DDOT = 0

CCSDS_OMM_VERS = 2.0
CREATION_DATE  = 
ORIGINATOR     = 

OBJECT_NAME    = STARLINK-36540
OBJECT_ID      = 2026-012U
CENTER_NAME    = EARTH
REF_FRAME      = TEME
TIME_SYSTEM    = UTC
MEAN_ELEMENT_THEORY = SGP/SGP4

EPOCH          = 2026-02-07T04:00:01.999584
MEAN_MOTION    = 15.53545354
ECCENTRICITY   = .0001544
INCLINATION    = 42.9990
RA_OF_ASC_NODE = 129.1697
ARG_OF_PERICENTER = 275.1820
MEAN_ANOMALY   = 184.1877

EPHEMERIS_TYPE = 0
CLASSIFICATION_TYPE = U
NORAD_CAT_ID   = 67511
ELEMENT_SET_NO = 999
REV_AT_EPOCH   = 416
BSTAR          = -.35301E-1
MEAN_MOTION_DOT = -.2054114E-1
MEAN_MOTION_DDOT = 0

CCSDS_OMM_VERS = 2.0
CREATION_DATE  = 
ORIGINATOR     = 

OBJECT_NAME    = STARLINK-36538
OBJECT_ID      = 2026-012V
CENTER_NAME    = EARTH
REF_FRAME      = TEME
TIME_SYSTEM    = UTC
MEAN_ELEMENT_THEORY = SGP/SGP4

EPOCH          = 2026-02-07T04:00:01.999584
MEAN_MOTION    = 15.66912274
ECCENTRICITY   = .0001489
INCLINATION    = 42.9994
RA_OF_ASC_NODE = 128.6416
ARG_OF_PERICENTER = 269.6970
MEAN_ANOMALY   = 42.0796

EPHEMERIS_TYPE = 0
CLASSIFICATION_TYPE = U
NORAD_CAT_ID   = 67512
ELEMENT_SET_NO = 999
REV_AT_EPOCH   = 416
BSTAR          = -.197E-1
MEAN_MOTION_DOT = -.1904616E-1
MEAN_MOTION_DDOT = 0

CCSDS_OMM_VERS = 2.0
CREATION_DATE  = 
ORIGINATOR     = 

OBJECT_NAME    = STARLINK-36531
OBJECT_ID      = 2026-012W
CENTER_NAME    = EARTH
REF_FRAME      = TEME
TIME_SYSTEM    = UTC
MEAN_ELEMENT_THEORY = SGP/SGP4

EPOCH          = 2026-02-07T04:00:01.999584
MEAN_MOTION    = 15.67790790
ECCENTRICITY   = .0001578
INCLINATION    = 42.9992
RA_OF_ASC_NODE = 128.6028
ARG_OF_PERICENTER = 270.2667
MEAN_ANOMALY   = 57.0294

EPHEMERIS_TYPE = 0
CLASSIFICATION_TYPE = U
NORAD_CAT_ID   = 67513
ELEMENT_SET_NO = 999
REV_AT_EPOCH   = 410
BSTAR          = -.18972E-1
MEAN_MOTION_DOT = -.1902157E-1
MEAN_MOTION_DDOT = 0

CCSDS_OMM_VERS = 2.0
CREATION_DATE  = 
ORIGINATOR     = 

OBJECT_NAME    = STARLINK-36530
OBJECT_ID      = 2026-012X
CENTER_NAME    = EARTH
REF_FRAME      = TEME
TIME_SYSTEM    = UTC
MEAN_ELEMENT_THEORY = SGP/SGP4

EPOCH          = 2026-02-07T04:00:01.999584
MEAN_MOTION    = 15.66839426
ECCENTRICITY   = .0001632
INCLINATION    = 42.9994
RA_OF_ASC_NODE = 128.6177
ARG_OF_PERICENTER = 268.4097
MEAN_ANOMALY   = 52.7003

EPHEMERIS_TYPE = 0
CLASSIFICATION_TYPE = U
NORAD_CAT_ID   = 67514
ELEMENT_SET_NO = 999
REV_AT_EPOCH   = 410
BSTAR          = -.19715E-1
MEAN_MOTION_DOT = -.1900969E-1
MEAN_MOTION_DDOT = 0

CCSDS_OMM_VERS = 2.0
CREATION_DATE  = 
ORIGINATOR     = 

OBJECT_NAME    = STARLINK-36543
OBJECT_ID      = 2026-012Y
CENTER_NAME    = EARTH
REF_FRAME      = TEME
TIME_SYSTEM    = UTC
MEAN_ELEMENT_THEORY = SGP/SGP4

EPOCH          = 2026-02-07T04:00:01.999584
MEAN_MOTION    = 15.65835775
ECCENTRICITY   = .0001618
INCLINATION    = 42.9994
RA_OF_ASC_NODE = 128.6375
ARG_OF_PERICENTER = 265.3861
MEAN_ANOMALY   = 47.6050

EPHEMERIS_TYPE = 0
CLASSIFICATION_TYPE = U
NORAD_CAT_ID   = 67515
ELEMENT_SET_NO = 999
REV_AT_EPOCH   = 410
BSTAR          = -.20521E-1
MEAN_MOTION_DOT = -.1899439E-1
MEAN_MOTION_DDOT = 0

CCSDS_OMM_VERS = 2.0
CREATION_DATE  = 
ORIGINATOR     = 

OBJECT_NAME    = STARLINK-36537
OBJECT_ID      = 2026-012Z
CENTER_NAME    = EARTH
REF_FRAME      = TEME
TIME_SYSTEM    = UTC
MEAN_ELEMENT_THEORY = SGP/SGP4

EPOCH          = 2026-02-07T04:00:01.999584
MEAN_MOTION    = 15.67884711
ECCENTRICITY   = .0001552
INCLINATION    = 42.9990
RA_OF_ASC_NODE = 128.5385
ARG_OF_PERICENTER = 274.9475
MEAN_ANOMALY   = 77.4376

EPHEMERIS_TYPE = 0
CLASSIFICATION_TYPE = U
NORAD_CAT_ID   = 67516
ELEMENT_SET_NO = 999
REV_AT_EPOCH   = 410
BSTAR          = -.19006E-1
MEAN_MOTION_DOT = -.1911708E-1
MEAN_MOTION_DDOT = 0

CCSDS_OMM_VERS = 2.0
CREATION_DATE  = 
ORIGINATOR     = 

OBJECT_NAME    = STARLINK-36544
OBJECT_ID      = 2026-012AA
CENTER_NAME    = EARTH
REF_FRAME      = TEME
TIME_SYSTEM    = UTC
MEAN_ELEMENT_THEORY = SGP/SGP4

EPOCH          = 2026-02-07T04:00:01.999584
MEAN_MOTION    = 15.68792993
ECCENTRICITY   = .0001566
INCLINATION    = 42.9992
RA_OF_ASC_NODE = 128.5297
ARG_OF_PERICENTER = 272.7744
MEAN_ANOMALY   = 83.3175

EPHEMERIS_TYPE = 0
CLASSIFICATION_TYPE = U
NORAD_CAT_ID   = 67517
ELEMENT_SET_NO = 999
REV_AT_EPOCH   = 416
BSTAR          = -.18343E-1
MEAN_MOTION_DOT = -.1915557E-1
MEAN_MOTION_DDOT = 0

CCSDS_OMM_VERS = 2.0
CREATION_DATE  = 
ORIGINATOR     = 

OBJECT_NAME    = STARLINK-36412
OBJECT_ID      = 2026-012AB
CENTER_NAME    = EARTH
REF_FRAME      = TEME
TIME_SYSTEM    = UTC
MEAN_ELEMENT_THEORY = SGP/SGP4

EPOCH          = 2026-02-07T04:00:01.999584
MEAN_MOTION    = 15.68010432
ECCENTRICITY   = .0001527
INCLINATION    = 42.9992
RA_OF_ASC_NODE = 128.4928
ARG_OF_PERICENTER = 271.7651
MEAN_ANOMALY   = 99.0154

EPHEMERIS_TYPE = 0
CLASSIFICATION_TYPE = U
NORAD_CAT_ID   = 67518
ELEMENT_SET_NO = 999
REV_AT_EPOCH   = 410
BSTAR          = -.18962E-1
MEAN_MOTION_DOT = -.1916666E-1
MEAN_MOTION_DDOT = 0

CCSDS_OMM_VERS = 2.0
CREATION_DATE  = 
ORIGINATOR     = 

OBJECT_NAME    = STARLINK-36415
OBJECT_ID      = 2026-012AC
CENTER_NAME    = EARTH
REF_FRAME      = TEME
TIME_SYSTEM    = UTC
MEAN_ELEMENT_THEORY = SGP/SGP4

EPOCH          = 2026-02-07T04:00:01.999584
MEAN_MOTION    = 15.68213870
ECCENTRICITY   = .000167
INCLINATION    = 43.0041
RA_OF_ASC_NODE = 128.4691
ARG_OF_PERICENTER = 274.8287
MEAN_ANOMALY   = 104.7551

EPHEMERIS_TYPE = 0
CLASSIFICATION_TYPE = U
NORAD_CAT_ID   = 67519
ELEMENT_SET_NO = 999
REV_AT_EPOCH   = 431
BSTAR          = -.18721E-1
MEAN_MOTION_DOT = -.190933E-1
MEAN_MOTION_DDOT = 0

CCSDS_OMM_VERS = 2.0
CREATION_DATE  = 
ORIGINATOR     = 

OBJECT_NAME    = STARLINK-36547
OBJECT_ID      = 2026-012AD
CENTER_NAME    = EARTH
REF_FRAME      = TEME
TIME_SYSTEM    = UTC
MEAN_ELEMENT_THEORY = SGP/SGP4

EPOCH          = 2026-02-07T04:00:01.999584
MEAN_MOTION    = 15.67832546
ECCENTRICITY   = .0001538
INCLINATION    = 42.9995
RA_OF_ASC_NODE = 128.5089
ARG_OF_PERICENTER = 272.5734
MEAN_ANOMALY   = 91.3916

EPHEMERIS_TYPE = 0
CLASSIFICATION_TYPE = U
NORAD_CAT_ID   = 67520
ELEMENT_SET_NO = 999
REV_AT_EPOCH   = 410
BSTAR          = -.19097E-1
MEAN_MOTION_DOT = -.1916173E-1
MEAN_MOTION_DDOT = 0

CCSDS_OMM_VERS = 2.0
CREATION_DATE  = 
ORIGINATOR     = 

OBJECT_NAME    = STARLINK-36444
OBJECT_ID      = 2026-012AE
CENTER_NAME    = EARTH
REF_FRAME      = TEME
TIME_SYSTEM    = UTC
MEAN_ELEMENT_THEORY = SGP/SGP4

EPOCH          = 2026-02-07T04:00:01.999584
MEAN_MOTION    = 15.66156325
ECCENTRICITY   = .0001542
INCLINATION    = 42.9991
RA_OF_ASC_NODE = 128.5773
ARG_OF_PERICENTER = 270.5520
MEAN_ANOMALY   = 66.1970

EPHEMERIS_TYPE = 0
CLASSIFICATION_TYPE = U
NORAD_CAT_ID   = 67521
ELEMENT_SET_NO = 999
REV_AT_EPOCH   = 410
BSTAR          = -.20363E-1
MEAN_MOTION_DOT = -.1908341E-1
MEAN_MOTION_DDOT = 0

CCSDS_OMM_VERS = 2.0
CREATION_DATE  = 
ORIGINATOR     = 

OBJECT_NAME    = HULIANWANG DIGUI-146
OBJECT_ID      = 2026-013A
CENTER_NAME    = EARTH
REF_FRAME      = TEME
TIME_SYSTEM    = UTC
MEAN_ELEMENT_THEORY = SGP/SGP4

EPOCH          = 2026-02-07T03:39:21.229056
MEAN_MOTION    = 13.85084532
ECCENTRICITY   = .0000803
INCLINATION    = 50.0086
RA_OF_ASC_NODE = 109.7340
ARG_OF_PERICENTER = 330.0711
MEAN_ANOMALY   = 30.0139

EPHEMERIS_TYPE = 0
CLASSIFICATION_TYPE = U
NORAD_CAT_ID   = 67522
ELEMENT_SET_NO = 999
REV_AT_EPOCH   = 263
BSTAR          = .13985E-3
MEAN_MOTION_DOT = .15E-6
MEAN_MOTION_DDOT = 0

CCSDS_OMM_VERS = 2.0
CREATION_DATE  = 
ORIGINATOR     = 

OBJECT_NAME    = HULIANWANG DIGUI-147
OBJECT_ID      = 2026-013B
CENTER_NAME    = EARTH
REF_FRAME      = TEME
TIME_SYSTEM    = UTC
MEAN_ELEMENT_THEORY = SGP/SGP4

EPOCH          = 2026-02-07T03:37:07.727232
MEAN_MOTION    = 13.85068270
ECCENTRICITY   = .0001004
INCLINATION    = 50.0047
RA_OF_ASC_NODE = 109.7100
ARG_OF_PERICENTER = 18.7436
MEAN_ANOMALY   = 341.3497

EPHEMERIS_TYPE = 0
CLASSIFICATION_TYPE = U
NORAD_CAT_ID   = 67523
ELEMENT_SET_NO = 999
REV_AT_EPOCH   = 263
BSTAR          = .13114E-3
MEAN_MOTION_DOT = .5E-7
MEAN_MOTION_DDOT = 0

